start=new Date('2023-02-25T00:00:00.000Z').valueOf();
sats=[{"CENTER_NAME":"EARTH","OBJECT_ID":"2023-021U","MEAN_ANOMALY":"15.0676","OBJECT_TYPE":"PAYLOAD","REF_FRAME":"TEME","MEAN_MOTION_DDOT":"0.0003328800000","TIME_SYSTEM":"UTC","EPOCH":"2023-02-25T02:00:01.000224","COUNTRY_CODE":"US","SITE":"AFWTR","FILE":"3834698","ARG_OF_PERICENTER":"190.0243","ELEMENT_SET_NO":"999","OBJECT_NAME":"STARLINK-5104","ECCENTRICITY":"0.00118890","GP_ID":"226746023","RA_OF_ASC_NODE":"129.7649","TLE_LINE2":"2 55646  70.0001 129.7649 0011889 190.0243  15.0676 15.89406816  1688","BSTAR":"-0.00365320000000","SEMIMAJOR_AXIS":"6682.082","TLE_LINE1":"1 55646U 23021U   23056.08334491 -.01068363  33288-3 -36532-2 0  9999","PERIOD":"90.600","MEAN_MOTION_DOT":"-0.01068363","MEAN_MOTION":"15.89406816","PERIAPSIS":"296.003","INCLINATION":"70.0001","LAUNCH_DATE":"2023-02-17","MEAN_ELEMENT_THEORY":"SGP4","RCS_SIZE":null,"APOAPSIS":"311.891","REV_AT_EPOCH":"168","EPHEMERIS_TYPE":"0","CLASSIFICATION_TYPE":"U","NORAD_CAT_ID":"55646","DECAY_DATE":null},{"DECAY_DATE":null,"CLASSIFICATION_TYPE":"U","NORAD_CAT_ID":"55647","APOAPSIS":"312.171","REV_AT_EPOCH":"168","EPHEMERIS_TYPE":"0","RCS_SIZE":null,"MEAN_ELEMENT_THEORY":"SGP4","INCLINATION":"70.0001","PERIAPSIS":"294.878","LAUNCH_DATE":"2023-02-17","MEAN_MOTION_DOT":"-0.01069328","MEAN_MOTION":"15.89557542","PERIOD":"90.591","SEMIMAJOR_AXIS":"6681.659","TLE_LINE1":"1 55647U 23021V   23056.08334491 -.01069328  33393-3 -36247-2 0  9992","BSTAR":"-0.00362470000000","TLE_LINE2":"2 55647  70.0001 129.7608 0012940 186.1549  22.2867 15.89557542  1683","RA_OF_ASC_NODE":"129.7608","OBJECT_NAME":"STARLINK-5510","GP_ID":"226746462","ECCENTRICITY":"0.00129400","ELEMENT_SET_NO":"999","ARG_OF_PERICENTER":"186.1549","FILE":"3834711","SITE":"AFWTR","EPOCH":"2023-02-25T02:00:01.000224","COUNTRY_CODE":"US","TIME_SYSTEM":"UTC","MEAN_MOTION_DDOT":"0.0003339300000","REF_FRAME":"TEME","OBJECT_TYPE":"PAYLOAD","MEAN_ANOMALY":"22.2867","OBJECT_ID":"2023-021V","CENTER_NAME":"EARTH"},{"SITE":"AFWTR","EPOCH":"2023-02-25T02:00:01.000224","COUNTRY_CODE":"US","TIME_SYSTEM":"UTC","MEAN_MOTION_DDOT":"0.0003330700000","REF_FRAME":"TEME","OBJECT_TYPE":"PAYLOAD","MEAN_ANOMALY":"22.0083","OBJECT_ID":"2023-021W","CENTER_NAME":"EARTH","DECAY_DATE":null,"CLASSIFICATION_TYPE":"U","NORAD_CAT_ID":"55648","APOAPSIS":"312.799","EPHEMERIS_TYPE":"0","REV_AT_EPOCH":"168","RCS_SIZE":null,"MEAN_ELEMENT_THEORY":"SGP4","INCLINATION":"70.0002","PERIAPSIS":"294.795","LAUNCH_DATE":"2023-02-17","MEAN_MOTION_DOT":"-0.01068390","MEAN_MOTION":"15.89460214","PERIOD":"90.597","SEMIMAJOR_AXIS":"6681.932","TLE_LINE1":"1 55648U 23021W   23056.08334491 -.01068390  33307-3 -36370-2 0  9993","TLE_LINE2":"2 55648  70.0002 129.7635 0013472 184.2949  22.0083 15.89460214  1686","BSTAR":"-0.00363700000000","RA_OF_ASC_NODE":"129.7635","OBJECT_NAME":"STARLINK-5501","ECCENTRICITY":"0.00134720","GP_ID":"226746469","ELEMENT_SET_NO":"999","ARG_OF_PERICENTER":"184.2949","FILE":"3834711"},{"FILE":"3834780","ELEMENT_SET_NO":"999","ARG_OF_PERICENTER":"186.1326","GP_ID":"226748432","ECCENTRICITY":"0.00128530","OBJECT_NAME":"STARLINK-5469","RA_OF_ASC_NODE":"129.7613","BSTAR":"-0.00362870000000","TLE_LINE2":"2 55649  70.0001 129.7613 0012853 186.1326  21.8322 15.89536062  1682","TLE_LINE1":"1 55649U 23021X   23056.08334491 -.01069245  33381-3 -36287-2 0  9993","SEMIMAJOR_AXIS":"6681.720","PERIOD":"90.592","MEAN_MOTION":"15.89536062","MEAN_MOTION_DOT":"-0.01069245","LAUNCH_DATE":"2023-02-17","PERIAPSIS":"294.997","INCLINATION":"70.0001","RCS_SIZE":null,"MEAN_ELEMENT_THEORY":"SGP4","REV_AT_EPOCH":"168","EPHEMERIS_TYPE":"0","APOAPSIS":"312.173","NORAD_CAT_ID":"55649","CLASSIFICATION_TYPE":"U","DECAY_DATE":null,"CENTER_NAME":"EARTH","OBJECT_ID":"2023-021X","MEAN_ANOMALY":"21.8322","OBJECT_TYPE":"PAYLOAD","REF_FRAME":"TEME","MEAN_MOTION_DDOT":"0.0003338100000","TIME_SYSTEM":"UTC","COUNTRY_CODE":"US","EPOCH":"2023-02-25T02:00:01.000224","SITE":"AFWTR"},{"APOAPSIS":"312.224","REV_AT_EPOCH":"168","EPHEMERIS_TYPE":"0","MEAN_ELEMENT_THEORY":"SGP4","RCS_SIZE":null,"INCLINATION":"70.0001","PERIAPSIS":"295.186","LAUNCH_DATE":"2023-02-17","MEAN_MOTION_DOT":"-0.01069073","MEAN_MOTION":"15.89493066","DECAY_DATE":null,"CLASSIFICATION_TYPE":"U","NORAD_CAT_ID":"55650","RA_OF_ASC_NODE":"129.7626","OBJECT_NAME":"STARLINK-5494","GP_ID":"226746465","ECCENTRICITY":"0.00127490","ELEMENT_SET_NO":"999","ARG_OF_PERICENTER":"186.2895","FILE":"3834711","PERIOD":"90.595","SEMIMAJOR_AXIS":"6681.840","TLE_LINE1":"1 55650U 23021Y   23056.08334491 -.01069073  33357-3 -36364-2 0  9993","TLE_LINE2":"2 55650  70.0001 129.7626 0012749 186.2895  20.7207 15.89493066  1680","BSTAR":"-0.00363640000000","TIME_SYSTEM":"UTC","REF_FRAME":"TEME","MEAN_MOTION_DDOT":"0.0003335700000","SITE":"AFWTR","EPOCH":"2023-02-25T02:00:01.000224","COUNTRY_CODE":"US","OBJECT_ID":"2023-021Y","CENTER_NAME":"EARTH","OBJECT_TYPE":"PAYLOAD","MEAN_ANOMALY":"20.7207"},{"DECAY_DATE":null,"CLASSIFICATION_TYPE":"U","NORAD_CAT_ID":"55651","MEAN_ELEMENT_THEORY":"SGP4","RCS_SIZE":null,"APOAPSIS":"312.278","REV_AT_EPOCH":"168","EPHEMERIS_TYPE":"0","MEAN_MOTION_DOT":"-0.01068591","MEAN_MOTION":"15.89440732","PERIAPSIS":"295.426","INCLINATION":"70.0002","LAUNCH_DATE":"2023-02-17","SEMIMAJOR_AXIS":"6681.987","TLE_LINE1":"1 55651U 23021Z   23056.08334491 -.01068591  33313-3 -36449-2 0  9994","PERIOD":"90.598","TLE_LINE2":"2 55651  70.0002 129.7640 0012610 187.1056  18.6552 15.89440732  1685","BSTAR":"-0.00364490000000","OBJECT_NAME":"STARLINK-5506","ECCENTRICITY":"0.00126100","GP_ID":"226746464","RA_OF_ASC_NODE":"129.7640","FILE":"3834711","ELEMENT_SET_NO":"999","ARG_OF_PERICENTER":"187.1056","SITE":"AFWTR","EPOCH":"2023-02-25T02:00:01.000224","COUNTRY_CODE":"US","REF_FRAME":"TEME","MEAN_MOTION_DDOT":"0.0003331300000","TIME_SYSTEM":"UTC","MEAN_ANOMALY":"18.6552","OBJECT_TYPE":"PAYLOAD","CENTER_NAME":"EARTH","OBJECT_ID":"2023-021Z"},{"OBJECT_ID":"2023-021AA","CENTER_NAME":"EARTH","OBJECT_TYPE":"PAYLOAD","MEAN_ANOMALY":"20.9405","TIME_SYSTEM":"UTC","REF_FRAME":"TEME","MEAN_MOTION_DDOT":"0.0003337000000","COUNTRY_CODE":"US","EPOCH":"2023-02-25T02:00:01.000224","SITE":"AFWTR","ELEMENT_SET_NO":"999","ARG_OF_PERICENTER":"186.5652","FILE":"3834711","RA_OF_ASC_NODE":"129.7620","ECCENTRICITY":"0.00126800","GP_ID":"226746028","OBJECT_NAME":"STARLINK-5487","TLE_LINE2":"2 55652  70.0000 129.7620 0012680 186.5652  20.9405 15.89514025  1684","BSTAR":"-0.00363320000000","PERIOD":"90.594","TLE_LINE1":"1 55652U 23021AA  23056.08334491 -.01069174  33370-3 -36332-2 0  9997","SEMIMAJOR_AXIS":"6681.781","LAUNCH_DATE":"2023-02-17","PERIAPSIS":"295.174","INCLINATION":"70.0000","MEAN_MOTION":"15.89514025","MEAN_MOTION_DOT":"-0.01069174","EPHEMERIS_TYPE":"0","REV_AT_EPOCH":"168","APOAPSIS":"312.119","MEAN_ELEMENT_THEORY":"SGP4","RCS_SIZE":null,"NORAD_CAT_ID":"55652","CLASSIFICATION_TYPE":"U","DECAY_DATE":null},{"MEAN_ANOMALY":"23.4564","OBJECT_TYPE":"PAYLOAD","CENTER_NAME":"EARTH","OBJECT_ID":"2023-021AB","COUNTRY_CODE":"US","EPOCH":"2023-02-25T02:00:01.000224","SITE":"AFWTR","MEAN_MOTION_DDOT":"0.0003340100000","REF_FRAME":"TEME","TIME_SYSTEM":"UTC","BSTAR":"-0.00362230000000","TLE_LINE2":"2 55653  70.0001 129.7604 0013139 185.2400  23.4564 15.89567803  1681","TLE_LINE1":"1 55653U 23021AB  23056.08334491 -.01069419  33401-3 -36223-2 0  9994","SEMIMAJOR_AXIS":"6681.631","PERIOD":"90.591","FILE":"3834711","ARG_OF_PERICENTER":"185.2400","ELEMENT_SET_NO":"999","ECCENTRICITY":"0.00131390","GP_ID":"226746466","OBJECT_NAME":"STARLINK-5067","RA_OF_ASC_NODE":"129.7604","NORAD_CAT_ID":"55653","CLASSIFICATION_TYPE":"U","DECAY_DATE":null,"MEAN_MOTION":"15.89567803","MEAN_MOTION_DOT":"-0.01069419","LAUNCH_DATE":"2023-02-17","PERIAPSIS":"294.717","INCLINATION":"70.0001","MEAN_ELEMENT_THEORY":"SGP4","RCS_SIZE":null,"REV_AT_EPOCH":"168","EPHEMERIS_TYPE":"0","APOAPSIS":"312.275"},{"TLE_LINE2":"2 55654  70.0001 129.7651 0012391 188.2998  16.5533 15.89396002  1688","BSTAR":"-0.00365270000000","TLE_LINE1":"1 55654U 23021AC  23056.08334491 -.01068216  33277-3 -36527-2 0  9997","SEMIMAJOR_AXIS":"6682.112","PERIOD":"90.600","FILE":"3834711","ARG_OF_PERICENTER":"188.2998","ELEMENT_SET_NO":"999","ECCENTRICITY":"0.00123910","GP_ID":"226746029","OBJECT_NAME":"STARLINK-5070","RA_OF_ASC_NODE":"129.7651","NORAD_CAT_ID":"55654","CLASSIFICATION_TYPE":"U","DECAY_DATE":null,"MEAN_MOTION":"15.89396002","MEAN_MOTION_DOT":"-0.01068216","LAUNCH_DATE":"2023-02-17","INCLINATION":"70.0001","PERIAPSIS":"295.697","RCS_SIZE":"LARGE","MEAN_ELEMENT_THEORY":"SGP4","EPHEMERIS_TYPE":"0","REV_AT_EPOCH":"168","APOAPSIS":"312.257","MEAN_ANOMALY":"16.5533","OBJECT_TYPE":"PAYLOAD","CENTER_NAME":"EARTH","OBJECT_ID":"2023-021AC","COUNTRY_CODE":"US","EPOCH":"2023-02-25T02:00:01.000224","SITE":"AFWTR","MEAN_MOTION_DDOT":"0.0003327700000","REF_FRAME":"TEME","TIME_SYSTEM":"UTC"},{"MEAN_MOTION":"15.89643382","MEAN_MOTION_DOT":"-0.01070302","LAUNCH_DATE":"2023-02-17","INCLINATION":"70.0001","PERIAPSIS":"294.706","MEAN_ELEMENT_THEORY":"SGP4","RCS_SIZE":null,"REV_AT_EPOCH":"168","EPHEMERIS_TYPE":"0","APOAPSIS":"311.862","NORAD_CAT_ID":"55655","CLASSIFICATION_TYPE":"U","DECAY_DATE":null,"FILE":"3834711","ARG_OF_PERICENTER":"186.1189","ELEMENT_SET_NO":"999","GP_ID":"226746031","ECCENTRICITY":"0.00128380","OBJECT_NAME":"STARLINK-5267","RA_OF_ASC_NODE":"129.7585","TLE_LINE2":"2 55655  70.0001 129.7585 0012838 186.1189  24.2351 15.89643382  1680","BSTAR":"-0.00361280000000","TLE_LINE1":"1 55655U 23021AD  23056.08334491 -.01070302  33477-3 -36128-2 0  9996","SEMIMAJOR_AXIS":"6681.419","PERIOD":"90.586","REF_FRAME":"TEME","MEAN_MOTION_DDOT":"0.0003347700000","TIME_SYSTEM":"UTC","COUNTRY_CODE":"US","EPOCH":"2023-02-25T02:00:01.000224","SITE":"AFWTR","CENTER_NAME":"EARTH","OBJECT_ID":"2023-021AD","MEAN_ANOMALY":"24.2351","OBJECT_TYPE":"PAYLOAD"}];
